[{"OBJECT_NAME":"STARLINK-2145","OBJECT_ID":"2021-041C","EPOCH":"2025-10-22T12:20:10.235040","MEAN_MOTION":15.064152,"ECCENTRICITY":0.0002499,"INCLINATION":53.0553,"RA_OF_ASC_NODE":41.9114,"ARG_OF_PERICENTER":128.8987,"MEAN_ANOMALY":231.2225,"EPHEMERIS_TYPE":0,"CLASSIFICATION_TYPE":"U","NORAD_CAT_ID":48555,"ELEMENT_SET_NO":999,"REV_AT_EPOCH":24423,"BSTAR":0.00074746,"MEAN_MOTION_DOT":0.00010874,"MEAN_MOTION_DDOT":0},{"OBJECT_NAME":"STARLINK-2151","OBJECT_ID":"2021-041D","EPOCH":"2025-10-22T12:04:16.740192","MEAN_MOTION":15.06388241,"ECCENTRICITY":0.0001259,"INCLINATION":53.0558,"RA_OF_ASC_NODE":41.9605,"ARG_OF_PERICENTER":95.213,"MEAN_ANOMALY":264.9003,"EPHEMERIS_TYPE":0,"CLASSIFICATION_TYPE":"U","NORAD_CAT_ID":48556,"ELEMENT_SET_NO":999,"REV_AT_EPOCH":24423,"BSTAR":8.8963e-5,"MEAN_MOTION_DOT":1.044e-5,"MEAN_MOTION_DDOT":0},{"OBJECT_NAME":"STARLINK-2155","OBJECT_ID":"2021-041E","EPOCH":"2025-10-22T12:10:54.886944","MEAN_MOTION":15.06383546,"ECCENTRICITY":0.0001293,"INCLINATION":53.0561,"RA_OF_ASC_NODE":31.9409,"ARG_OF_PERICENTER":102.3733,"MEAN_ANOMALY":257.7401,"EPHEMERIS_TYPE":0,"CLASSIFICATION_TYPE":"U","NORAD_CAT_ID":48557,"ELEMENT_SET_NO":999,"REV_AT_EPOCH":24437,"BSTAR":0.00016959,"MEAN_MOTION_DOT":2.244e-5,"MEAN_MOTION_DDOT":0},{"OBJECT_NAME":"STARLINK-2166","OBJECT_ID":"2021-041F","EPOCH":"2025-10-22T12:05:36.425184","MEAN_MOTION":15.06379164,"ECCENTRICITY":0.0001404,"INCLINATION":53.0567,"RA_OF_ASC_NODE":31.9581,"ARG_OF_PERICENTER":102.5905,"MEAN_ANOMALY":257.5241,"EPHEMERIS_TYPE":0,"CLASSIFICATION_TYPE":"U","NORAD_CAT_ID":48558,"ELEMENT_SET_NO":999,"REV_AT_EPOCH":24351,"BSTAR":-6.1729e-5,"MEAN_MOTION_DOT":-1.2e-5,"MEAN_MOTION_DDOT":0},{"OBJECT_NAME":"STARLINK-2187","OBJECT_ID":"2021-041K","EPOCH":"2025-10-22T13:09:16.399008","MEAN_MOTION":15.0642556,"ECCENTRICITY":0.0001282,"INCLINATION":53.0574,"RA_OF_ASC_NODE":31.7644,"ARG_OF_PERICENTER":85.421,"MEAN_ANOMALY":274.6926,"EPHEMERIS_TYPE":0,"CLASSIFICATION_TYPE":"U","NORAD_CAT_ID":48562,"ELEMENT_SET_NO":999,"REV_AT_EPOCH":24438,"BSTAR":0.00081974,"MEAN_MOTION_DOT":0.00011958,"MEAN_MOTION_DDOT":0},{"OBJECT_NAME":"STARLINK-2188","OBJECT_ID":"2021-041L","EPOCH":"2025-10-22T12:00:18.283968","MEAN_MOTION":15.06388908,"ECCENTRICITY":0.0001499,"INCLINATION":53.0569,"RA_OF_ASC_NODE":31.9755,"ARG_OF_PERICENTER":78.1836,"MEAN_ANOMALY":281.9321,"EPHEMERIS_TYPE":0,"CLASSIFICATION_TYPE":"U","NORAD_CAT_ID":48563,"ELEMENT_SET_NO":999,"REV_AT_EPOCH":24437,"BSTAR":0.00019397,"MEAN_MOTION_DOT":2.608e-5,"MEAN_MOTION_DDOT":0},{"OBJECT_NAME":"STARLINK-2190","OBJECT_ID":"2021-041M","EPOCH":"2025-10-22T11:49:41.284416","MEAN_MOTION":15.06386256,"ECCENTRICITY":0.0001587,"INCLINATION":53.0553,"RA_OF_ASC_NODE":32.007,"ARG_OF_PERICENTER":106.0738,"MEAN_ANOMALY":254.0426,"EPHEMERIS_TYPE":0,"CLASSIFICATION_TYPE":"U","NORAD_CAT_ID":48564,"ELEMENT_SET_NO":999,"REV_AT_EPOCH":24437,"BSTAR":0.00018986,"MEAN_MOTION_DOT":2.546e-5,"MEAN_MOTION_DDOT":0},{"OBJECT_NAME":"STARLINK-2214","OBJECT_ID":"2021-041P","EPOCH":"2025-10-22T12:14:53.259360","MEAN_MOTION":15.06393359,"ECCENTRICITY":0.0001616,"INCLINATION":53.0555,"RA_OF_ASC_NODE":41.8997,"ARG_OF_PERICENTER":103.1695,"MEAN_ANOMALY":256.9474,"EPHEMERIS_TYPE":0,"CLASSIFICATION_TYPE":"U","NORAD_CAT_ID":48566,"ELEMENT_SET_NO":999,"REV_AT_EPOCH":24423,"BSTAR":8.6598e-5,"MEAN_MOTION_DOT":1.008e-5,"MEAN_MOTION_DDOT":0},{"OBJECT_NAME":"STARLINK-2217","OBJECT_ID":"2021-041R","EPOCH":"2025-10-22T12:53:22.346016","MEAN_MOTION":15.06396413,"ECCENTRICITY":0.0001449,"INCLINATION":53.0544,"RA_OF_ASC_NODE":31.8093,"ARG_OF_PERICENTER":97.0606,"MEAN_ANOMALY":263.0548,"EPHEMERIS_TYPE":0,"CLASSIFICATION_TYPE":"U","NORAD_CAT_ID":48568,"ELEMENT_SET_NO":999,"REV_AT_EPOCH":24437,"BSTAR":0.00032584,"MEAN_MOTION_DOT":4.575e-5,"MEAN_MOTION_DDOT":0},{"OBJECT_NAME":"STARLINK-2219","OBJECT_ID":"2021-041S","EPOCH":"2025-10-22T11:54:59.141376","MEAN_MOTION":15.06395693,"ECCENTRICITY":0.0001412,"INCLINATION":53.0559,"RA_OF_ASC_NODE":31.9914,"ARG_OF_PERICENTER":103.8358,"MEAN_ANOMALY":256.2788,"EPHEMERIS_TYPE":0,"CLASSIFICATION_TYPE":"U","NORAD_CAT_ID":48569,"ELEMENT_SET_NO":999,"REV_AT_EPOCH":24437,"BSTAR":0.00046953,"MEAN_MOTION_DOT":6.718e-5,"MEAN_MOTION_DDOT":0},{"OBJECT_NAME":"STARLINK-2220","OBJECT_ID":"2021-041T","EPOCH":"2025-10-22T11:37:43.696128","MEAN_MOTION":15.0638967,"ECCENTRICITY":0.000139,"INCLINATION":53.0559,"RA_OF_ASC_NODE":42.0446,"ARG_OF_PERICENTER":101.2654,"MEAN_ANOMALY":258.8491,"EPHEMERIS_TYPE":0,"CLASSIFICATION_TYPE":"U","NORAD_CAT_ID":48570,"ELEMENT_SET_NO":999,"REV_AT_EPOCH":24422,"BSTAR":0.00019689,"MEAN_MOTION_DOT":2.652e-5,"MEAN_MOTION_DDOT":0},{"OBJECT_NAME":"STARLINK-2221","OBJECT_ID":"2021-041U","EPOCH":"2025-10-22T11:48:20.198016","MEAN_MOTION":15.06404089,"ECCENTRICITY":0.0001322,"INCLINATION":53.0549,"RA_OF_ASC_NODE":42.0125,"ARG_OF_PERICENTER":66.4574,"MEAN_ANOMALY":293.6554,"EPHEMERIS_TYPE":0,"CLASSIFICATION_TYPE":"U","NORAD_CAT_ID":48571,"ELEMENT_SET_NO":999,"REV_AT_EPOCH":24423,"BSTAR":0.00059068,"MEAN_MOTION_DOT":8.528e-5,"MEAN_MOTION_DDOT":0},{"OBJECT_NAME":"STARLINK-2222","OBJECT_ID":"2021-041V","EPOCH":"2025-10-22T11:43:02.424000","MEAN_MOTION":15.06378475,"ECCENTRICITY":0.0001561,"INCLINATION":53.0558,"RA_OF_ASC_NODE":42.0245,"ARG_OF_PERICENTER":93.8103,"MEAN_ANOMALY":266.3065,"EPHEMERIS_TYPE":0,"CLASSIFICATION_TYPE":"U","NORAD_CAT_ID":48572,"ELEMENT_SET_NO":999,"REV_AT_EPOCH":24423,"BSTAR":0.00019386,"MEAN_MOTION_DOT":2.605e-5,"MEAN_MOTION_DDOT":0},{"OBJECT_NAME":"STARLINK-2224","OBJECT_ID":"2021-041W","EPOCH":"2025-10-22T12:48:05.002272","MEAN_MOTION":15.06385252,"ECCENTRICITY":0.0001267,"INCLINATION":53.0543,"RA_OF_ASC_NODE":31.8259,"ARG_OF_PERICENTER":92.2282,"MEAN_ANOMALY":267.8852,"EPHEMERIS_TYPE":0,"CLASSIFICATION_TYPE":"U","NORAD_CAT_ID":48573,"ELEMENT_SET_NO":999,"REV_AT_EPOCH":24437,"BSTAR":3.202e-5,"MEAN_MOTION_DOT":1.95e-6,"MEAN_MOTION_DDOT":0},{"OBJECT_NAME":"STARLINK-2225","OBJECT_ID":"2021-041X","EPOCH":"2025-10-22T12:04:18.133824","MEAN_MOTION":15.06392473,"ECCENTRICITY":0.0001175,"INCLINATION":53.0564,"RA_OF_ASC_NODE":2.0456,"ARG_OF_PERICENTER":102.3482,"MEAN_ANOMALY":257.7639,"EPHEMERIS_TYPE":0,"CLASSIFICATION_TYPE":"U","NORAD_CAT_ID":48574,"ELEMENT_SET_NO":999,"REV_AT_EPOCH":24479,"BSTAR":0.00034319,"MEAN_MOTION_DOT":4.833e-5,"MEAN_MOTION_DDOT":0},{"OBJECT_NAME":"STARLINK-2227","OBJECT_ID":"2021-041Y","EPOCH":"2025-10-22T10:51:19.783584","MEAN_MOTION":15.06410954,"ECCENTRICITY":0.000157,"INCLINATION":53.0553,"RA_OF_ASC_NODE":352.5081,"ARG_OF_PERICENTER":80.0138,"MEAN_ANOMALY":280.1028,"EPHEMERIS_TYPE":0,"CLASSIFICATION_TYPE":"U","NORAD_CAT_ID":48575,"ELEMENT_SET_NO":999,"REV_AT_EPOCH":24493,"BSTAR":-0.00025065,"MEAN_MOTION_DOT":-4.014e-5,"MEAN_MOTION_DDOT":0},{"OBJECT_NAME":"STARLINK-2228","OBJECT_ID":"2021-041Z","EPOCH":"2025-10-22T12:27:31.154112","MEAN_MOTION":15.06405446,"ECCENTRICITY":0.0001543,"INCLINATION":53.0549,"RA_OF_ASC_NODE":6.8906,"ARG_OF_PERICENTER":86.6608,"MEAN_ANOMALY":273.4557,"EPHEMERIS_TYPE":0,"CLASSIFICATION_TYPE":"U","NORAD_CAT_ID":48576,"ELEMENT_SET_NO":999,"REV_AT_EPOCH":24473,"BSTAR":0.00073371,"MEAN_MOTION_DOT":0.00010665,"MEAN_MOTION_DDOT":0}]
