48555,STARLINK-2145,2021,95.59,260.0,+,53.06,Active,1,LEO,USA,USA,Commercial,Communications,Falcon,1 48555U 21041C   25295.51400735  .00010874  00000+0  74746-3 0  9993,2 48555  53.0553  41.9114 0002499 128.8987 231.2225 15.06415200244233,15.064152,0.0002499,LEO
48556,STARLINK-2151,2021,95.59,260.0,+,53.06,Active,1,LEO,USA,USA,Commercial,Communications,Falcon,1 48556U 21041D   25295.50297153  .00001044  00000+0  88963-4 0  9997,2 48556  53.0558  41.9605 0001259  95.2130 264.9003 15.06388241244235,15.06388241,0.0001259,LEO
48557,STARLINK-2155,2021,95.59,260.0,+,53.06,Active,1,LEO,USA,USA,Commercial,Communications,Falcon,1 48557U 21041E   25295.50757971  .00002244  00000+0  16959-3 0  9995,2 48557  53.0561  31.9409 0001293 102.3733 257.7401 15.06383546244378,15.06383546,0.0001293,LEO
48558,STARLINK-2166,2021,95.59,260.0,+,53.06,Active,1,LEO,USA,USA,Commercial,Communications,Falcon,1 48558U 21041F   25295.50389381 -.00001200  00000+0 -61729-4 0  9991,2 48558  53.0567  31.9581 0001404 102.5905 257.5241 15.06379164243519,15.06379164,0.0001404,LEO
48562,STARLINK-2187,2021,95.59,260.0,+,53.06,Active,1,LEO,USA,USA,Commercial,Communications,Falcon,1 48562U 21041K   25295.54810647  .00011958  00000+0  81974-3 0  9996,2 48562  53.0574  31.7644 0001282  85.4210 274.6926 15.06425560244380,15.0642556,0.0001282,LEO
48563,STARLINK-2188,2021,95.59,260.0,+,53.06,Active,1,LEO,USA,USA,Commercial,Communications,Falcon,1 48563U 21041L   25295.50021162  .00002608  00000+0  19397-3 0  9991,2 48563  53.0569  31.9755 0001499  78.1836 281.9321 15.06388908244376,15.06388908,0.0001499,LEO
48564,STARLINK-2190,2021,95.59,260.0,+,53.06,Active,1,LEO,USA,USA,Commercial,Communications,Falcon,1 48564U 21041M   25295.49283894  .00002546  00000+0  18986-3 0  9996,2 48564  53.0553  32.0070 0001587 106.0738 254.0426 15.06386256244373,15.06386256,0.0001587,LEO
48566,STARLINK-2214,2021,95.59,260.0,+,53.06,Active,1,LEO,USA,USA,Commercial,Communications,Falcon,1 48566U 21041P   25295.51033865  .00001008  00000+0  86598-4 0  9999,2 48566  53.0555  41.8997 0001616 103.1695 256.9474 15.06393359244237,15.06393359,0.0001616,LEO
48568,STARLINK-2217,2021,95.59,260.0,+,53.05,Active,1,LEO,USA,USA,Commercial,Communications,Falcon,1 48568U 21041R   25295.53706419  .00004575  00000+0  32584-3 0  9992,2 48568  53.0544  31.8093 0001449  97.0606 263.0548 15.06396413244370,15.06396413,0.0001449,LEO
48569,STARLINK-2219,2021,95.59,260.0,+,53.06,Active,1,LEO,USA,USA,Commercial,Communications,Falcon,1 48569U 21041S   25295.49651784  .00006718  00000+0  46953-3 0  9998,2 48569  53.0559  31.9914 0001412 103.8358 256.2788 15.06395693244379,15.06395693,0.0001412,LEO
48570,STARLINK-2220,2021,95.59,260.0,+,53.06,Active,1,LEO,USA,USA,Commercial,Communications,Falcon,1 48570U 21041T   25295.48453352  .00002652  00000+0  19689-3 0  9999,2 48570  53.0559  42.0446 0001390 101.2654 258.8491 15.06389670244221,15.0638967,0.000139,LEO
48571,STARLINK-2221,2021,95.59,260.0,+,53.05,Active,1,LEO,USA,USA,Commercial,Communications,Falcon,1 48571U 21041U   25295.49190044  .00008528  00000+0  59068-3 0  9990,2 48571  53.0549  42.0125 0001322  66.4574 293.6554 15.06404089244233,15.06404089,0.0001322,LEO
48572,STARLINK-2222,2021,95.59,260.0,+,53.05,Active,1,LEO,USA,USA,Commercial,Communications,Falcon,1 48572U 21041V   25295.48822250  .00002605  00000+0  19386-3 0  9990,2 48572  53.0558  42.0245 0001561  93.8103 266.3065 15.06378475244237,15.06378475,0.0001561,LEO
48573,STARLINK-2224,2021,95.59,260.0,+,53.05,Active,1,LEO,USA,USA,Commercial,Communications,Falcon,1 48573U 21041W   25295.53339123  .00000195  00000+0  32020-4 0  9992,2 48573  53.0543  31.8259 0001267  92.2282 267.8852 15.06385252244373,15.06385252,0.0001267,LEO
48574,STARLINK-2225,2021,95.59,260.0,+,53.06,Active,1,LEO,USA,USA,Commercial,Communications,Falcon,1 48574U 21041X   25295.50298766  .00004833  00000+0  34319-3 0  9992,2 48574  53.0564   2.0456 0001175 102.3482 257.7639 15.06392473244799,15.06392473,0.0001175,LEO
48575,STARLINK-2227,2021,95.59,260.0,+,53.06,Active,1,LEO,USA,USA,Commercial,Communications,Falcon,1 48575U 21041Y   25295.45231231 -.00004014  00000+0 -25065-3 0  9992,2 48575  53.0553 352.5081 0001570  80.0138 280.1028 15.06410954244937,15.06410954,0.000157,LEO
48576,STARLINK-2228,2021,95.59,260.0,+,53.06,Active,1,LEO,USA,USA,Commercial,Communications,Falcon,1 48576U 21041Z   25295.51911058  .00010665  00000+0  73371-3 0  9992,2 48576  53.0549   6.8906 0001543  86.6608 273.4557 15.06405446244732,15.06405446,0.0001543,LEO
